[{"OBJECT_NAME":"LYNK TOWER 4","OBJECT_ID":"2023-001AB","EPOCH":"2026-03-09T16:15:30.644928","MEAN_MOTION":15.31819885,"ECCENTRICITY":0.00103213,"INCLINATION":97.3324,"RA_OF_ASC_NODE":128.594,"ARG_OF_PERICENTER":112.3386,"MEAN_ANOMALY":247.895,"EPHEMERIS_TYPE":0,"CLASSIFICATION_TYPE":"U","NORAD_CAT_ID":55034,"ELEMENT_SET_NO":999,"REV_AT_EPOCH":17658,"BSTAR":0.00030013829,"MEAN_MOTION_DOT":9.16e-5,"MEAN_MOTION_DDOT":0},{"OBJECT_NAME":"STARLINK-35531","OBJECT_ID":"2025-236AC","EPOCH":"2026-03-09T11:30:39.663936","MEAN_MOTION":15.30192173,"ECCENTRICITY":0.00014919,"INCLINATION":53.1595,"RA_OF_ASC_NODE":104.76,"ARG_OF_PERICENTER":76.8145,"MEAN_ANOMALY":283.3022,"EPHEMERIS_TYPE":0,"CLASSIFICATION_TYPE":"U","NORAD_CAT_ID":66112,"ELEMENT_SET_NO":999,"REV_AT_EPOCH":2291,"BSTAR":0.00093900161,"MEAN_MOTION_DOT":0.00027548,"MEAN_MOTION_DDOT":0}]
